[{"OBJECT_NAME":"STARLINK-34454","OBJECT_ID":"2025-126P","EPOCH":"2026-03-09T22:22:27.532704","MEAN_MOTION":14.98342465,"ECCENTRICITY":0.00025639,"INCLINATION":70.0032,"RA_OF_ASC_NODE":34.0251,"ARG_OF_PERICENTER":261.2501,"MEAN_ANOMALY":98.8368,"EPHEMERIS_TYPE":0,"CLASSIFICATION_TYPE":"U","NORAD_CAT_ID":64357,"ELEMENT_SET_NO":999,"REV_AT_EPOCH":4071,"BSTAR":0.00052411451,"MEAN_MOTION_DOT":6.168e-5,"MEAN_MOTION_DDOT":0},{"OBJECT_NAME":"DELTA 1 DEB","OBJECT_ID":"1977-065GK","EPOCH":"2026-03-09T12:42:00.380448","MEAN_MOTION":14.06309065,"ECCENTRICITY":0.05229834,"INCLINATION":29.0296,"RA_OF_ASC_NODE":199.7344,"ARG_OF_PERICENTER":45.239,"MEAN_ANOMALY":318.9544,"EPHEMERIS_TYPE":0,"CLASSIFICATION_TYPE":"U","NORAD_CAT_ID":39098,"ELEMENT_SET_NO":999,"REV_AT_EPOCH":61131,"BSTAR":0.00047724368,"MEAN_MOTION_DOT":2.979e-5,"MEAN_MOTION_DDOT":0}]
